{
  "type": "FeatureCollection",
  "features": [
    {
      "type": "Feature",
      "properties": {
        "norad_id": 27954,
        "name": "GALAXY 13 (HORIZONS-1)",
        "group": "intelsat",
        "lat": 0.32828911417773987,
        "lon": 105.82719886835208,
        "alt_km": 35793.46059302734,
        "timestamp": "2025-12-14T11:29:49.724153+00:00",
        "meta_object_name": "GALAXY 13 (HORIZONS-1)",
        "meta_object_id": "2003-044A",
        "meta_epoch": "2025-12-13T14:34:48.967680",
        "meta_mean_motion": 1.0027193,
        "meta_eccentricity": 0.00020585,
        "meta_inclination": 0.9379,
        "meta_ra_of_asc_node": 86.4573,
        "meta_arg_of_pericenter": 169.6092,
        "meta_mean_anomaly": 255.17,
        "meta_ephemeris_type": 0,
        "meta_classification_type": "U",
        "meta_norad_cat_id": 27954,
        "meta_element_set_no": 999,
        "meta_rev_at_epoch": 4471,
        "meta_bstar": 0,
        "meta_mean_motion_dot": 1.48e-06,
        "meta_mean_motion_ddot": 0,
        "tle_line1": "1 27954U 03044A   25347.60751120  .00000148  00000+0  00000+0 0  9992",
        "tle_line2": "2 27954   0.9379  86.4573 0002058 169.6092 255.1700  1.00271930 44717"
      },
      "geometry": {
        "type": "Point",
        "coordinates": [
          105.82719886835208,
          0.32828911417773987
        ]
      }
    },
    {
      "type": "Feature",
      "properties": {
        "norad_id": 28358,
        "name": "INTELSAT 10-02",
        "group": "intelsat",
        "lat": -0.018850782814473735,
        "lon": -105.13073543373318,
        "alt_km": 35782.70346930989,
        "timestamp": "2025-12-14T11:29:49.724166+00:00",
        "meta_object_name": "INTELSAT 10-02",
        "meta_object_id": "2004-022A",
        "meta_epoch": "2025-12-13T15:09:25.950240",
        "meta_mean_motion": 1.00271167,
        "meta_eccentricity": 0.00010752,
        "meta_inclination": 0.0253,
        "meta_ra_of_asc_node": 68.9709,
        "meta_arg_of_pericenter": 225.25,
        "meta_mean_anomaly": 14.7327,
        "meta_ephemeris_type": 0,
        "meta_classification_type": "U",
        "meta_norad_cat_id": 28358,
        "meta_element_set_no": 999,
        "meta_rev_at_epoch": 7869,
        "meta_bstar": 0,
        "meta_mean_motion_dot": 5e-08,
        "meta_mean_motion_ddot": 0,
        "tle_line1": "1 28358U 04022A   25347.63155035  .00000005  00000+0  00000+0 0  9996",
        "tle_line2": "2 28358   0.0253  68.9709 0001075 225.2500  14.7327  1.00271167 78695"
      },
      "geometry": {
        "type": "Point",
        "coordinates": [
          -105.13073543373318,
          -0.018850782814473735
        ]
      }
    },
    {
      "type": "Feature",
      "properties": {
        "norad_id": 28626,
        "name": "XM-3 (RHYTHM)",
        "group": "intelsat",
        "lat": -0.16462598057098107,
        "lon": 1.9068874674264673,
        "alt_km": 36153.57481364752,
        "timestamp": "2025-12-14T11:29:49.724178+00:00",
        "meta_object_name": "XM-3 (RHYTHM)",
        "meta_object_id": "2005-008A",
        "meta_epoch": "2025-12-13T15:41:00.424896",
        "meta_mean_motion": 0.98952073,
        "meta_eccentricity": 0.00016007,
        "meta_inclination": 0.1771,
        "meta_ra_of_asc_node": 81.6242,
        "meta_arg_of_pericenter": 272.7978,
        "meta_mean_anomaly": 73.3958,
        "meta_ephemeris_type": 0,
        "meta_classification_type": "U",
        "meta_norad_cat_id": 28626,
        "meta_element_set_no": 999,
        "meta_rev_at_epoch": 4075,
        "meta_bstar": 0,
        "meta_mean_motion_dot": -1.19e-06,
        "meta_mean_motion_ddot": 0,
        "tle_line1": "1 28626U 05008A   25347.65347714 -.00000119  00000+0  00000+0 0  9995",
        "tle_line2": "2 28626   0.1771  81.6242 0001600 272.7978  73.3958  0.98952073 40758"
      },
      "geometry": {
        "type": "Point",
        "coordinates": [
          1.9068874674264673,
          -0.16462598057098107
        ]
      }
    },
    {
      "type": "Feature",
      "properties": {
        "norad_id": 28659,
        "name": "DIRECTV 8",
        "group": "intelsat",
        "lat": 0.022068793910279483,
        "lon": 136.77675826687442,
        "alt_km": 35794.21804300849,
        "timestamp": "2025-12-14T11:29:49.724191+00:00",
        "meta_object_name": "DIRECTV 8",
        "meta_object_id": "2005-019A",
        "meta_epoch": "2025-12-13T12:06:25.165152",
        "meta_mean_motion": 1.00272038,
        "meta_eccentricity": 0.00029822,
        "meta_inclination": 0.0234,
        "meta_ra_of_asc_node": 67.8675,
        "meta_arg_of_pericenter": 199.8413,
        "meta_mean_anomaly": 237.289,
        "meta_ephemeris_type": 0,
        "meta_classification_type": "U",
        "meta_norad_cat_id": 28659,
        "meta_element_set_no": 999,
        "meta_rev_at_epoch": 7521,
        "meta_bstar": 0,
        "meta_mean_motion_dot": 1.6e-07,
        "meta_mean_motion_ddot": 0,
        "tle_line1": "1 28659U 05019A   25347.50445793  .00000016  00000+0  00000+0 0  9998",
        "tle_line2": "2 28659   0.0234  67.8675 0002982 199.8413 237.2890  1.00272038 75215"
      },
      "geometry": {
        "type": "Point",
        "coordinates": [
          136.77675826687442,
          0.022068793910279483
        ]
      }
    },
    {
      "type": "Feature",
      "properties": {
        "norad_id": 28702,
        "name": "GALAXY 28 (G-28)",
        "group": "intelsat",
        "lat": 2.8130860300611453,
        "lon": 167.12278805045602,
        "alt_km": 35787.73037144684,
        "timestamp": "2025-12-14T11:29:49.724203+00:00",
        "meta_object_name": "GALAXY 28 (G-28)",
        "meta_object_id": "2005-022A",
        "meta_epoch": "2025-12-13T14:44:20.851872",
        "meta_mean_motion": 1.00271629,
        "meta_eccentricity": 0.00028245,
        "meta_inclination": 2.8211,
        "meta_ra_of_asc_node": 81.2718,
        "meta_arg_of_pericenter": 185.1769,
        "meta_mean_anomaly": 308.4942,
        "meta_ephemeris_type": 0,
        "meta_classification_type": "U",
        "meta_norad_cat_id": 28702,
        "meta_element_set_no": 999,
        "meta_rev_at_epoch": 5011,
        "meta_bstar": 0,
        "meta_mean_motion_dot": -1.73e-06,
        "meta_mean_motion_ddot": 0,
        "tle_line1": "1 28702U 05022A   25347.61413023 -.00000173  00000+0  00000+0 0  9999",
        "tle_line2": "2 28702   2.8211  81.2718 0002824 185.1769 308.4942  1.00271629 50110"
      },
      "geometry": {
        "type": "Point",
        "coordinates": [
          167.12278805045602,
          2.8130860300611453
        ]
      }
    },
    {
      "type": "Feature",
      "properties": {
        "norad_id": 29236,
        "name": "GALAXY 16 (G-16)",
        "group": "intelsat",
        "lat": 0.009737480677840304,
        "lon": 156.80088230760933,
        "alt_km": 35789.708742693656,
        "timestamp": "2025-12-14T11:29:49.724214+00:00",
        "meta_object_name": "GALAXY 16 (G-16)",
        "meta_object_id": "2006-023A",
        "meta_epoch": "2025-12-13T14:41:28.627296",
        "meta_mean_motion": 1.0027046,
        "meta_eccentricity": 0.00024598,
        "meta_inclination": 0.0209,
        "meta_ra_of_asc_node": 83.844,
        "meta_arg_of_pericenter": 181.1275,
        "meta_mean_anomaly": 298.9274,
        "meta_ephemeris_type": 0,
        "meta_classification_type": "U",
        "meta_norad_cat_id": 29236,
        "meta_element_set_no": 999,
        "meta_rev_at_epoch": 7111,
        "meta_bstar": 0,
        "meta_mean_motion_dot": 0,
        "meta_mean_motion_ddot": 0,
        "tle_line1": "1 29236U 06023A   25347.61213689  .00000000  00000+0  00000+0 0  9998",
        "tle_line2": "2 29236   0.0209  83.8440 0002459 181.1275 298.9274  1.00270460 71118"
      },
      "geometry": {
        "type": "Point",
        "coordinates": [
          156.80088230760933,
          0.009737480677840304
        ]
      }
    },
    {
      "type": "Feature",
      "properties": {
        "norad_id": 29494,
        "name": "DIRECTV 9S",
        "group": "intelsat",
        "lat": 1.844348320045573,
        "lon": 154.59419631484246,
        "alt_km": 35790.39273408412,
        "timestamp": "2025-12-14T11:29:49.724227+00:00",
        "meta_object_name": "DIRECTV 9S",
        "meta_object_id": "2006-043A",
        "meta_epoch": "2025-12-13T14:40:51.186720",
        "meta_mean_motion": 1.00271913,
        "meta_eccentricity": 0.00029549,
        "meta_inclination": 1.9426,
        "meta_ra_of_asc_node": 83.2025,
        "meta_arg_of_pericenter": 182.9215,
        "meta_mean_anomaly": 295.4192,
        "meta_ephemeris_type": 0,
        "meta_classification_type": "U",
        "meta_norad_cat_id": 29494,
        "meta_element_set_no": 999,
        "meta_rev_at_epoch": 4952,
        "meta_bstar": 0,
        "meta_mean_motion_dot": -9.8e-07,
        "meta_mean_motion_ddot": 0,
        "tle_line1": "1 29494U 06043A   25347.61170355 -.00000098  00000+0  00000+0 0  9996",
        "tle_line2": "2 29494   1.9426  83.2025 0002954 182.9215 295.4192  1.00271913 49526"
      },
      "geometry": {
        "type": "Point",
        "coordinates": [
          154.59419631484246,
          1.844348320045573
        ]
      }
    }
  ]
}